{"type": "FeatureCollection", "features": [{"type": "Feature", "properties": {"st_nm": "Andaman & Nicobar Islands"}, "geometry": {"type": "Point", "coordinates": [92.82668, 12.60949]}}, {"type": "Feature", "properties": {"st_nm": "Andhra Pradesh"}, "geometry": {"type": "Point", "coordinates": [79.62185, 15.89518]}}, {"type": "Feature", "properties": {"st_nm": "Arunachal Pradesh"}, "geometry": {"type": "Point", "coordinates": [95.03144, 28.05573]}}, {"type": "Feature", "properties": {"st_nm": "Assam"}, "geometry": {"type": "Point", "coordinates": [90.76066, 26.05472]}}, {"type": "Feature", "properties": {"st_nm": "Bihar"}, "geometry": {"type": "Point", "coordinates": [86.12367, 25.90543]}}, {"type": "Feature", "properties": {"st_nm": "Chandigarh"}, "geometry": {"type": "Point", "coordinates": [76.78079, 30.73176]}}, {"type": "Feature", "properties": {"st_nm": "Chhattisgarh"}, "geometry": {"type": "Point", "coordinates": [81.50697, 20.94328]}}, {"type": "Feature", "properties": {"st_nm": "Dadra & Nagar Haveli and Daman & Diu"}, "geometry": {"type": "Point", "coordinates": [73.00709, 20.20465]}}, {"type": "Feature", "properties": {"st_nm": "Delhi"}, "geometry": {"type": "Point", "coordinates": [77.12348, 28.6456]}}, {"type": "Feature", "properties": {"st_nm": "Goa"}, "geometry": {"type": "Point", "coordinates": [74.10289, 15.34873]}}, {"type": "Feature", "properties": {"st_nm": "Gujarat"}, "geometry": {"type": "Point", "coordinates": [71.97186, 22.4161]}}, {"type": "Feature", "properties": {"st_nm": "Haryana"}, "geometry": {"type": "Point", "coordinates": [76.05169, 29.29384]}}, {"type": "Feature", "properties": {"st_nm": "Himachal Pradesh"}, "geometry": {"type": "Point", "coordinates": [77.34879, 31.81756]}}, {"type": "Feature", "properties": {"st_nm": "Jammu & Kashmir"}, "geometry": {"type": "Point", "coordinates": [74.94366, 33.71695]}}, {"type": "Feature", "properties": {"st_nm": "Jharkhand"}, "geometry": {"type": "Point", "coordinates": [85.16914, 23.65736]}}, {"type": "Feature", "properties": {"st_nm": "Karnataka"}, "geometry": {"type": "Point", "coordinates": [75.53469, 15.0271]}}, {"type": "Feature", "properties": {"st_nm": "Kerala"}, "geometry": {"type": "Point", "coordinates": [76.42683, 10.54868]}}, {"type": "Feature", "properties": {"st_nm": "Ladakh"}, "geometry": {"type": "Point", "coordinates": [77.70908, 34.71353]}}, {"type": "Feature", "properties": {"st_nm": "Lakshadweep"}, "geometry": {"type": "Point", "coordinates": [73.06683, 8.29619]}}, {"type": "Feature", "properties": {"st_nm": "Madhya Pradesh"}, "geometry": {"type": "Point", "coordinates": [79.39529, 23.96936]}}, {"type": "Feature", "properties": {"st_nm": "Maharashtra"}, "geometry": {"type": "Point", "coordinates": [75.42563, 18.82114]}}, {"type": "Feature", "properties": {"st_nm": "Manipur"}, "geometry": {"type": "Point", "coordinates": [93.86519, 24.7639]}}, {"type": "Feature", "properties": {"st_nm": "Meghalaya"}, "geometry": {"type": "Point", "coordinates": [91.25738, 25.57289]}}, {"type": "Feature", "properties": {"st_nm": "Mizoram"}, "geometry": {"type": "Point", "coordinates": [92.86643, 23.23257]}}, {"type": "Feature", "properties": {"st_nm": "Nagaland"}, "geometry": {"type": "Point", "coordinates": [94.5545, 26.11599]}}, {"type": "Feature", "properties": {"st_nm": "Odisha"}, "geometry": {"type": "Point", "coordinates": [84.47686, 20.1866]}}, {"type": "Feature", "properties": {"st_nm": "Puducherry"}, "geometry": {"type": "Point", "coordinates": [79.80694, 10.91504]}}, {"type": "Feature", "properties": {"st_nm": "Punjab"}, "geometry": {"type": "Point", "coordinates": [75.58435, 31.02755]}}, {"type": "Feature", "properties": {"st_nm": "Rajasthan"}, "geometry": {"type": "Point", "coordinates": [73.82659, 26.62855]}}, {"type": "Feature", "properties": {"st_nm": "Sikkim"}, "geometry": {"type": "Point", "coordinates": [88.45879, 27.60521]}}, {"type": "Feature", "properties": {"st_nm": "Tamil Nadu"}, "geometry": {"type": "Point", "coordinates": [78.3472, 10.82273]}}, {"type": "Feature", "properties": {"st_nm": "Telangana"}, "geometry": {"type": "Point", "coordinates": [79.29714, 17.87623]}}, {"type": "Feature", "properties": {"st_nm": "Tripura"}, "geometry": {"type": "Point", "coordinates": [91.6554, 23.73521]}}, {"type": "Feature", "properties": {"st_nm": "Uttar Pradesh"}, "geometry": {"type": "Point", "coordinates": [80.78041, 27.13985]}}, {"type": "Feature", "properties": {"st_nm": "Uttarakhand"}, "geometry": {"type": "Point", "coordinates": [79.32215, 30.09183]}}, {"type": "Feature", "properties": {"st_nm": "West Bengal"}, "geometry": {"type": "Point", "coordinates": [88.06187, 24.38909]}}]}